{"type": "FeatureCollection", "features": [ {"type": "Feature", "properties": {"norad_id": 36682, "name": "FENGYUN 1C DEB", "group": "fengyun-1c-debris", "lat": 79.26165822034726, "lon": -169.63797225175432, "alt_km": 1125.5350867493707, "timestamp": "2025-12-03T08:58:46.290576+00:00", "meta": {"OBJECT_NAME": "FENGYUN 1C DEB", "OBJECT_ID": "1999-025DZC", "EPOCH": "2025-11-25T04:16:29.525664", "MEAN_MOTION": 13.70056399, "ECCENTRICITY": 0.02353921, "INCLINATION": 98.4824, "RA_OF_ASC_NODE": 235.0215, "ARG_OF_PERICENTER": 324.0882, "MEAN_ANOMALY": 34.464, "EPHEMERIS_TYPE": 0, "CLASSIFICATION_TYPE": "U", "NORAD_CAT_ID": 36682, "ELEMENT_SET_NO": 999, "REV_AT_EPOCH": 61152, "BSTAR": 0.0021541592, "MEAN_MOTION_DOT": 2.264e-05, "MEAN_MOTION_DDOT": 0}, "tle": {"line1": "1 36682U 99025DZC 25329.17811951  .00002264  00000+0  21542-2 0  9993", "line2": "2 36682  98.4824 235.0215 0235392 324.0882  34.4640 13.70056399611520"}}, "geometry": {"type": "Point", "coordinates": [-169.63797225175432, 79.26165822034726]}}, {"type": "Feature", "properties": {"norad_id": 36684, "name": "FENGYUN 1C DEB", "group": "fengyun-1c-debris", "lat": 48.75351317605996, "lon": 56.632142562706726, "alt_km": 578.4385662645964, "timestamp": "2025-12-03T08:58:46.290587+00:00", "meta": {"OBJECT_NAME": "FENGYUN 1C DEB", "OBJECT_ID": "1999-025DZE", "EPOCH": "2025-11-29T05:08:15.355104", "MEAN_MOTION": 14.94343173, "ECCENTRICITY": 0.0023367, "INCLINATION": 99.4629, "RA_OF_ASC_NODE": 62.5894, "ARG_OF_PERICENTER": 152.1689, "MEAN_ANOMALY": 208.0782, "EPHEMERIS_TYPE": 0, "CLASSIFICATION_TYPE": "U", "NORAD_CAT_ID": 36684, "ELEMENT_SET_NO": 999, "REV_AT_EPOCH": 65699, "BSTAR": 0.0047778, "MEAN_MOTION_DOT": 0.00051944, "MEAN_MOTION_DDOT": 0}, "tle": {"line1": "1 36684U 99025DZE 25333.21406661  .00051944  00000+0  47778-2 0  9991", "line2": "2 36684  99.4629  62.5894 0023367 152.1689 208.0782 14.94343173656996"}}, "geometry": {"type": "Point", "coordinates": [56.632142562706726, 48.75351317605996]}}, {"type": "Feature", "properties": {"norad_id": 36686, "name": "FENGYUN 1C DEB", "group": "fengyun-1c-debris", "lat": -16.282506325243414, "lon": -14.957377059164495, "alt_km": 672.8569474839223, "timestamp": "2025-12-03T08:58:46.290598+00:00", "meta": {"OBJECT_NAME": "FENGYUN 1C DEB", "OBJECT_ID": "1999-025DZG", "EPOCH": "2025-11-29T06:32:59.021376", "MEAN_MOTION": 14.76948787, "ECCENTRICITY": 0.0105492, "INCLINATION": 99.002, "RA_OF_ASC_NODE": 163.1249, "ARG_OF_PERICENTER": 95.3844, "MEAN_ANOMALY": 265.9408, "EPHEMERIS_TYPE": 0, "CLASSIFICATION_TYPE": "U", "NORAD_CAT_ID": 36686, "ELEMENT_SET_NO": 999, "REV_AT_EPOCH": 65653, "BSTAR": 0.00088035366, "MEAN_MOTION_DOT": 6.731e-05, "MEAN_MOTION_DDOT": 0}, "tle": {"line1": "1 36686U 99025DZG 25333.27290534  .00006731  00000+0  88035-3 0  9995", "line2": "2 36686  99.0020 163.1249 0105492  95.3844 265.9408 14.76948787656531"}}, "geometry": {"type": "Point", "coordinates": [-14.957377059164495, -16.282506325243414]}}, {"type": "Feature", "properties": {"norad_id": 36687, "name": "FENGYUN 1C DEB", "group": "fengyun-1c-debris", "lat": -78.01212910834002, "lon": 110.44082322118501, "alt_km": 821.7560539401411, "timestamp": "2025-12-03T08:58:46.290608+00:00", "meta": {"OBJECT_NAME": "FENGYUN 1C DEB", "OBJECT_ID": "1999-025DZH", "EPOCH": "2025-12-03T00:48:50.166144", "MEAN_MOTION": 14.04517636, "ECCENTRICITY": 0.0090336, "INCLINATION": 98.7164, "RA_OF_ASC_NODE": 63.8535, "ARG_OF_PERICENTER": 292.8526, "MEAN_ANOMALY": 66.3122, "EPHEMERIS_TYPE": 0, "CLASSIFICATION_TYPE": "U", "NORAD_CAT_ID": 36687, "ELEMENT_SET_NO": 999, "REV_AT_EPOCH": 62586, "BSTAR": 0.00040937, "MEAN_MOTION_DOT": 6.35e-06, "MEAN_MOTION_DDOT": 0}, "tle": {"line1": "1 36687U 99025DZH 25337.03391396  .00000635  00000+0  40937-3 0  9998", "line2": "2 36687  98.7164  63.8535 0090336 292.8526  66.3122 14.04517636625866"}}, "geometry": {"type": "Point", "coordinates": [110.44082322118501, -78.01212910834002]}}, {"type": "Feature", "properties": {"norad_id": 36689, "name": "FENGYUN 1C DEB", "group": "fengyun-1c-debris", "lat": 18.78152333788696, "lon": -130.6579191073187, "alt_km": 856.3512244132098, "timestamp": "2025-12-03T08:58:46.290619+00:00", "meta": {"OBJECT_NAME": "FENGYUN 1C DEB", "OBJECT_ID": "1999-025DZK", "EPOCH": "2025-11-28T10:04:14.213280", "MEAN_MOTION": 13.74189275, "ECCENTRICITY": 0.03131537, "INCLINATION": 98.4796, "RA_OF_ASC_NODE": 227.8431, "ARG_OF_PERICENTER": 334.7216, "MEAN_ANOMALY": 23.8887, "EPHEMERIS_TYPE": 0, "CLASSIFICATION_TYPE": "U", "NORAD_CAT_ID": 36689, "ELEMENT_SET_NO": 999, "REV_AT_EPOCH": 58016, "BSTAR": 0.0027905602, "MEAN_MOTION_DOT": 3.71e-05, "MEAN_MOTION_DDOT": 0}, "tle": {"line1": "1 36689U 99025DZK 25332.41960895  .00003710  00000+0  27906-2 0  9990", "line2": "2 36689  98.4796 227.8431 0313153 334.7216  23.8887 13.74189275580169"}}, "geometry": {"type": "Point", "coordinates": [-130.6579191073187, 18.78152333788696]}}, {"type": "Feature", "properties": {"norad_id": 36691, "name": "FENGYUN 1C DEB", "group": "fengyun-1c-debris", "lat": 3.867699600832909, "lon": 158.50039594072118, "alt_km": 864.2460874117851, "timestamp": "2025-12-03T08:58:46.290629+00:00", "meta": {"OBJECT_NAME": "FENGYUN 1C DEB", "OBJECT_ID": "1999-025DZM", "EPOCH": "2025-11-30T20:23:52.583424", "MEAN_MOTION": 14.07012514, "ECCENTRICITY": 0.01293883, "INCLINATION": 98.6377, "RA_OF_ASC_NODE": 335.4994, "ARG_OF_PERICENTER": 269.1447, "MEAN_ANOMALY": 89.4896, "EPHEMERIS_TYPE": 0, "CLASSIFICATION_TYPE": "U", "NORAD_CAT_ID": 36691, "ELEMENT_SET_NO": 999, "REV_AT_EPOCH": 59442, "BSTAR": 0.0022318526, "MEAN_MOTION_DOT": 3.98e-05, "MEAN_MOTION_DDOT": 0}, "tle": {"line1": "1 36691U 99025DZM 25334.84991416  .00003980  00000+0  22319-2 0  9997", "line2": "2 36691  98.6377 335.4994 0129388 269.1447  89.4896 14.07012514594421"}}, "geometry": {"type": "Point", "coordinates": [158.50039594072118, 3.867699600832909]}}, {"type": "Feature", "properties": {"norad_id": 36692, "name": "FENGYUN 1C DEB", "group": "fengyun-1c-debris", "lat": -77.87288965897042, "lon": -62.14551684585258, "alt_km": 966.3211361858394, "timestamp": "2025-12-03T08:58:46.290639+00:00", "meta": {"OBJECT_NAME": "FENGYUN 1C DEB", "OBJECT_ID": "1999-025DZN", "EPOCH": "2025-12-02T12:41:50.115264", "MEAN_MOTION": 13.93442658, "ECCENTRICITY": 0.01157157, "INCLINATION": 99.9951, "RA_OF_ASC_NODE": 241.7875, "ARG_OF_PERICENTER": 39.9127, "MEAN_ANOMALY": 321.0467, "EPHEMERIS_TYPE": 0, "CLASSIFICATION_TYPE": "U", "NORAD_CAT_ID": 36692, "ELEMENT_SET_NO": 999, "REV_AT_EPOCH": 59663, "BSTAR": 0.0007628804, "MEAN_MOTION_DOT": 1.005e-05, "MEAN_MOTION_DDOT": 0}, "tle": {"line1": "1 36692U 99025DZN 25336.52905226  .00001005  00000+0  76288-3 0  9990", "line2": "2 36692  99.9951 241.7875 0115715  39.9127 321.0467 13.93442658596632"}}, "geometry": {"type": "Point", "coordinates": [-62.14551684585258, -77.87288965897042]}}, {"type": "Feature", "properties": {"norad_id": 36695, "name": "FENGYUN 1C DEB", "group": "fengyun-1c-debris", "lat": -81.55487885630647, "lon": 62.247688359169395, "alt_km": 810.0146862726506, "timestamp": "2025-12-03T08:58:46.290649+00:00", "meta": {"OBJECT_NAME": "FENGYUN 1C DEB", "OBJECT_ID": "1999-025DZR", "EPOCH": "2025-12-02T05:08:42.495936", "MEAN_MOTION": 14.43719766, "ECCENTRICITY": 0.0256767, "INCLINATION": 98.2188, "RA_OF_ASC_NODE": 317.8964, "ARG_OF_PERICENTER": 162.2314, "MEAN_ANOMALY": 198.8066, "EPHEMERIS_TYPE": 0, "CLASSIFICATION_TYPE": "U", "NORAD_CAT_ID": 36695, "ELEMENT_SET_NO": 999, "REV_AT_EPOCH": 89416, "BSTAR": 0.00021067, "MEAN_MOTION_DOT": 1.017e-05, "MEAN_MOTION_DDOT": 0}, "tle": {"line1": "1 36695U 99025DZR 25336.21438074  .00001017  00000+0  21067-3 0  9999", "line2": "2 36695  98.2188 317.8964 0256767 162.2314 198.8066 14.43719766894161"}}, "geometry": {"type": "Point", "coordinates": [62.247688359169395, -81.55487885630647]}}, {"type": "Feature", "properties": {"norad_id": 36696, "name": "FENGYUN 1C DEB", "group": "fengyun-1c-debris", "lat": -50.86054551514458, "lon": -2.8613825273959854, "alt_km": 757.7858816499574, "timestamp": "2025-12-03T08:58:46.290687+00:00", "meta": {"OBJECT_NAME": "FENGYUN 1C DEB", "OBJECT_ID": "1999-025DZS", "EPOCH": "2025-12-02T18:11:58.682976", "MEAN_MOTION": 14.38992658, "ECCENTRICITY": 0.002328, "INCLINATION": 98.9924, "RA_OF_ASC_NODE": 345.2734, "ARG_OF_PERICENTER": 359.309, "MEAN_ANOMALY": 0.806, "EPHEMERIS_TYPE": 0, "CLASSIFICATION_TYPE": "U", "NORAD_CAT_ID": 36696, "ELEMENT_SET_NO": 999, "REV_AT_EPOCH": 64252, "BSTAR": 0.0025774, "MEAN_MOTION_DOT": 7.939e-05, "MEAN_MOTION_DDOT": 0}, "tle": {"line1": "1 36696U 99025DZS 25336.75831809  .00007939  00000+0  25774-2 0  9999", "line2": "2 36696  98.9924 345.2734 0023280 359.3090   0.8060 14.38992658642523"}}, "geometry": {"type": "Point", "coordinates": [-2.8613825273959854, -50.86054551514458]}}, {"type": "Feature", "properties": {"norad_id": 36699, "name": "FENGYUN 1C DEB", "group": "fengyun-1c-debris", "lat": 56.52114718783053, "lon": 165.28115238358453, "alt_km": 749.6977948445656, "timestamp": "2025-12-03T08:58:46.290699+00:00", "meta": {"OBJECT_NAME": "FENGYUN 1C DEB", "OBJECT_ID": "1999-025DZV", "EPOCH": "2025-12-02T05:25:44.765184", "MEAN_MOTION": 14.24274466, "ECCENTRICITY": 0.0094163, "INCLINATION": 98.5587, "RA_OF_ASC_NODE": 331.0009, "ARG_OF_PERICENTER": 160.5985, "MEAN_ANOMALY": 199.8818, "EPHEMERIS_TYPE": 0, "CLASSIFICATION_TYPE": "U", "NORAD_CAT_ID": 36699, "ELEMENT_SET_NO": 999, "REV_AT_EPOCH": 73177, "BSTAR": 0.00029938, "MEAN_MOTION_DOT": 6.81e-06, "MEAN_MOTION_DDOT": 0}, "tle": {"line1": "1 36699U 99025DZV 25336.22621256  .00000681  00000+0  29938-3 0  9991", "line2": "2 36699  98.5587 331.0009 0094163 160.5985 199.8818 14.24274466731779"}}, "geometry": {"type": "Point", "coordinates": [165.28115238358453, 56.52114718783053]}}]}